SARSAT 7 (NOAA 15)      
1 25338U 98030A   16217.50567892  .00000042  00000-0  36486-4 0  9997
2 25338  98.7837 221.7538 0011528  50.2880 309.9314 14.25745153947874
GPS BIIR-07             
1 26690U 01004A   16217.49861402  .00000000  00000-0  10000-3 0  9993
2 26690  53.0067 171.0637 0174917 253.2635 104.7784  2.00561598113659
METEOSAT-8 (MSG-1)      
1 27509U 02040B   16217.22932762  .00000095  00000-0  00000+0 0  9992
2 27509   4.2849  59.5629 0000829 144.7899 208.7869  1.00400752 51116
GPS BIIR-08             
1 27663U 03005A   16217.35871310 -.00000096  00000-0  00000+0 0  9992
2 27663  56.7689 357.2188 0086056  20.9054 325.3976  2.00579692 99021
INSAT 3A                
1 27714U 03013A   16217.02834675 -.00000284  00000-0  00000+0 0  9994
2 27714   0.1040 269.4705 0006174 189.9699 317.2884  1.00271993 48816
GPS BIIR-11             
1 28190U 04009A   16216.15039918 -.00000050  00000-0  00000+0 0  9990
2 28190  55.8204  58.5285 0105169  46.8133 301.6359  2.00569417 90679
GPS BIIR-12             
1 28361U 04023A   16217.53687155  .00000016  00000-0  00000+0 0  9992
2 28361  54.1842 232.8715 0112674 215.2370 327.7385  2.00567551 88782
GPS BIIR-13             
1 28474U 04045A   16217.49859618 -.00000032  00000-0  00000+0 0  9990
2 28474  54.0712 110.7215 0160367 240.3213 278.1870  2.00570886 86149
SARSAT 10 (NOAA 18)     
1 28654U 05018A   16217.52116022  .00000045  00000-0  49945-4 0  9999
2 28654  99.1974 225.7095 0013377 237.4331 122.5548 14.12297375577557
GPS BIIR-14M            
1 28874U 05038A   16217.40876125 -.00000059  00000-0  00000+0 0  9999
2 28874  55.9859  55.6943 0112488 249.9933 310.4955  2.00557691 79544
MSG-2                   
1 28912U 05049B   16217.23392272  .00000036  00000-0  00000+0 0  9995
2 28912   1.5878  68.8092 0000267 306.0373  31.8238  1.00274495 38933
GOES 13                 
1 29155U 06018A   16216.34067543 -.00000277  00000-0  00000+0 0  9991
2 29155   0.0860 261.9035 0003526 195.8014 262.3143  1.00280431 37378
SARSAT 11 (METOP-A)     
1 29499U 06044A   16217.90701256  .00000012  00000-0  25376-4 0  9994
2 29499  98.6919 276.1437 0001663  49.1776  58.3425 14.21499613508209
GPS BIIR-16M            
1 29601U 06052A   16216.68853831 -.00000097  00000-0  00000+0 0  9995
2 29601  56.7400 356.1676 0059197  43.3720 317.0865  2.00562861 71161
GPS BIIR-17M            
1 32260U 07047A   16216.50170932  .00000020  00000-0  00000-0 0  9996
2 32260  53.3127 229.5418 0081680  26.5103 333.9377  2.00567173 64553
GPS BIIR-18M            
1 32384U 07062A   16217.07112946 -.00000056  00000-0  00000+0 0  9993
2 32384  56.0427  56.2686 0007049 344.5600 204.0066  2.00552429 63287
SARSAT 12 (NOAA 19)     
1 33591U 09005A   16217.48253455  .00000072  00000-0  64208-4 0  9991
2 33591  99.0439 174.6617 0015115  83.3175 276.9715 14.12094182385958
GOES 14                 
1 35491U 09033A   16216.42293600 -.00000118  00000-0  00000-0 0  9990
2 35491   0.3322  96.6914 0005130 104.8928 158.3738  1.00272325 26027
GOES 15                 
1 36411U 10008A   16216.50638439  .00000059  00000-0  00000+0 0  9991
2 36411   0.2674  97.6200 0000607 124.4861 137.8686  1.00284280 23547
ELEKTRO-L 1             
1 37344U 11001A   16218.17490933  .00000069  00000-0  00000+0 0  9992
2 37344   1.7982  79.1878 0034166  81.2123 246.5078  0.99713622 20336
GLONASS-K 1             
1 37372U 11009A   16218.15852367 -.00000022  00000-0  00000+0 0  9992
2 37372  65.2482  75.3334 0006653 230.9699 236.1595  2.13102814 42317
GPS BIIF-2              
1 37753U 11036A   16217.49389647 -.00000029  00000-0  00000+0 0  9994
2 37753  55.2861 113.4154 0056562  27.2823 253.7455  2.00567600 36995
GSAT0101 (GALILEO-PFM)  
1 37846U 11060A   16215.69612358 -.00000043  00000-0  00000+0 0  9998
2 37846  55.5858  80.6461 0003032 356.9171   3.1675  1.70473979 29786
GSAT0102 (GALILEO-FM2)  
1 37847U 11060B   16215.83977466 -.00000043  00000-0  00000-0 0  9990
2 37847  55.5863  80.6410 0003350 325.1766 164.4363  1.70474309 29668
LUCH 5A                 
1 37951U 11074B   16217.24503064  .00000000  00000-0  10000-3 0  9993
2 37951   1.6838 209.1237 0003413 290.4126  68.8540  1.00268628 17048
MSG-3                   
1 38552U 12035B   16217.13020535 -.00000031  00000-0  00000+0 0  9994
2 38552   0.5104  12.9303 0001724 196.7645 150.2762  1.00271613 15083
SARSAT 13 (METOP-B)     
1 38771U 12049A   16218.14005633  .00000001  00000-0  20735-4 0  9994
2 38771  98.7258 276.8035 0002234  83.6809 304.8774 14.21477452201376
GPS BIIF-3              
1 38833U 12053A   16216.09417817 -.00000034  00000-0  00000-0 0  9997
2 38833  54.3574 291.6825 0044190  20.7599 339.4896  2.00555995 27245
GSAT0103 (GALILEO-FM3)  
1 38857U 12055A   16215.74108797  .00000024  00000-0  00000+0 0  9997
2 38857  54.9324 200.8554 0005225 242.8133 117.1033  1.70473751 23704
GSAT0104 (GALILEO-FM4)  
1 38858U 12055B   16216.26209701  .00000023  00000-0  00000-0 0  9993
2 38858  54.9329 200.8400 0004194 244.3842 115.5396  1.70473874 23708
GPS BIIF-4              
1 39166U 13023A   16217.45115648  .00000000  00000-0  10000-3 0  9999
2 39166  55.6955  52.8114 0037221  16.2134 343.9689  2.00565257 23598
INSAT-3D                
1 39216U 13038B   16217.90006867 -.00000181  00000-0  00000+0 0  9999
2 39216   0.1152 272.3998 0000247  17.5158  70.0623  1.00273019 11173
GPS BIIF-5              
1 39533U 14008A   16216.94734102 -.00000045  00000-0  00000+0 0  9991
2 39533  54.5124 296.8910 0023461 184.3487 175.6969  2.00574859 17957
LUCH 5V                 
1 39727U 14023A   16217.80010481 -.00000291  00000-0  00000+0 0  9999
2 39727   3.3172 299.7051 0002115 230.4773 166.3663  1.00270672526395
GPS BIIF-6              
1 39741U 14026A   16217.23177786 -.00000029  00000-0  00000+0 0  9996
2 39741  55.2756 112.9434 0005130 277.8751  82.1194  2.00555836 16237
GPS BIIF-7              
1 40105U 14045A   16217.31639612 -.00001728  00000-0  10000-3 0  9995
2 40105  54.7042 232.6148 0003792 156.5734 203.4865  2.00540949 14693
GSAT0201 (GALILEO 5)    
1 40128U 14050A   16217.66280921 -.00000009  00000-0  10000-3 0  9990
2 40128  50.1149  57.9095 1597753  52.4532 321.1429  1.85516841 13409
GSAT0202 (GALILEO 6)    
1 40129U 14050B   16217.39247845 -.00000082  00000-0  00000+0 0  9995
2 40129  50.1724  56.9054 1598104  53.5429 320.2649  1.85519349 13591
GPS BIIF-8              
1 40294U 14068A   16217.19544121 -.00000008  00000-0  00000+0 0  9990
2 40294  54.9710 173.1048 0003622 284.5192  75.3995  2.00566106 12901
GLONASS-K 2             
1 40315U 14075A   16217.11531925 -.00000052  00000-0  00000+0 0  9991
2 40315  64.6006 316.4328 0017909 231.0522 277.3757  2.13101695 13050
GPS BIIF-9              
1 40534U 15013A   16217.33881743 -.00000099  00000-0  00000+0 0  9998
2 40534  55.0268 352.5959 0009213 349.3748  10.6040  2.00577613  9972
GSAT0203 (GALILEO 7)    
1 40544U 15017A   16216.65413021 -.00000044  00000-0  00000+0 0  9997
2 40544  55.3752  80.9561 0001630 207.0441 153.0342  1.70475015  8414
GSAT0204 (GALILEO 8)    
1 40545U 15017B   16216.43749051 -.00000044  00000-0  00000-0 0  9990
2 40545  55.3809  80.9717 0002115 129.9900 230.1154  1.70475269  8411
GPS BIIF-10             
1 40730U 15033A   16217.49262303 -.00000063  00000-0  00000+0 0  9991
2 40730  55.2328  52.6236 0018764 297.3887  62.4753  2.00557380  7739
GSAT0205 (GALILEO 9)    
1 40889U 15045A   16215.50046544 -.00000081  00000-0  00000-0 0  9997
2 40889  57.2288 320.7953 0001161 351.5086   8.5104  1.70475111  5548
GSAT0206 (GALILEO 10)   
1 40890U 15045B   16216.30707191 -.00000079  00000-0  00000+0 0  9996
2 40890  57.2272 320.7707 0000571 224.4044 135.6160  1.70475145  5581
GPS BIIF-11             
1 41019U 15062A   16217.04603717 -.00000009  00000-0  00000+0 0  9993
2 41019  54.9841 172.8846 0017466 208.6938 151.1690  2.00562538  5542
GSAT0209 (GALILEO 12)   
1 41174U 15079A   16217.06710097  .00000022  00000-0  00000+0 0  9999
2 41174  54.9445 200.5031 0006524 277.7320  82.1578  1.70473610  3919
GSAT0208 (GALILEO 11)   
1 41175U 15079B   16217.28703223  .00000071  00000-0  10000-3 0  9996
2 41175  54.9429 200.4983 0005652 275.1798  84.7253  1.70476767  3924
GPS BIIF-12             
1 41328U 16007A   16217.13276003  .00000020  00000-0  00000+0 0  9992
2 41328  54.9667 232.7235 0008155 239.4516 120.5043  2.00568334  3605
